[
    {
        "Altitude(m)": 555411.1713861108,
        "Argument of Periapsis(deg)": 0.013245982221427002,
        "Eccentricity": 0.0,
        "Inclination(deg)": 53.0,
        "Latitude(deg)": 32.13781044909051,
        "Longitude(deg)": 40.336799010141966,
        "Mean Anomaly(deg)": -221.6349142648448,
        "RAAN(deg)": 349.9802867370561,
        "Satellite Name": "Starlink Shell 1 1547",
        "Satellite Number": 1547,
        "Semi-Major Axis(m)": 6931778.249405717,
        "Time(s)": 380
    },
    {
        "Altitude(m)": 555333.9905901894,
        "Argument of Periapsis(deg)": 0.013594560700938237,
        "Eccentricity": 0.0,
        "Inclination(deg)": 53.0,
        "Latitude(deg)": 31.693220908799976,
        "Longitude(deg)": 40.81740194405107,
        "Mean Anomaly(deg)": -221.00808306128812,
        "RAAN(deg)": 349.9797679669786,
        "Satellite Name": "Starlink Shell 1 1547",
        "Satellite Number": 1547,
        "Semi-Major Axis(m)": 6931778.249405717,
        "Time(s)": 390
    },
    {
        "Altitude(m)": 555257.6666739966,
        "Argument of Periapsis(deg)": 0.013943139180449475,
        "Eccentricity": 0.0,
        "Inclination(deg)": 53.0,
        "Latitude(deg)": 31.246485029645648,
        "Longitude(deg)": 41.29304461711921,
        "Mean Anomaly(deg)": -220.38125185773143,
        "RAAN(deg)": 349.9792491969011,
        "Satellite Name": "Starlink Shell 1 1547",
        "Satellite Number": 1547,
        "Semi-Major Axis(m)": 6931778.249405717,
        "Time(s)": 400
    },
    {
        "Altitude(m)": 555182.2542918333,
        "Argument of Periapsis(deg)": 0.014291717659960712,
        "Eccentricity": 0.0,
        "Inclination(deg)": 53.0,
        "Latitude(deg)": 30.79765894247583,
        "Longitude(deg)": 41.76383672578973,
        "Mean Anomaly(deg)": -219.75442065417462,
        "RAAN(deg)": 349.97873042682363,
        "Satellite Name": "Starlink Shell 1 1547",
        "Satellite Number": 1547,
        "Semi-Major Axis(m)": 6931778.249405717,
        "Time(s)": 410
    },
    {
        "Altitude(m)": 555107.8078364113,
        "Argument of Periapsis(deg)": 0.014640296139471948,
        "Eccentricity": 0.0,
        "Inclination(deg)": 53.0,
        "Latitude(deg)": 30.346797520978527,
        "Longitude(deg)": 42.22988622628881,
        "Mean Anomaly(deg)": -219.12758945061793,
        "RAAN(deg)": 349.97821165674617,
        "Satellite Name": "Starlink Shell 1 1547",
        "Satellite Number": 1547,
        "Semi-Major Axis(m)": 6931778.249405717,
        "Time(s)": 420
    },
    {
        "Altitude(m)": 555034.3814103026,
        "Argument of Periapsis(deg)": 0.014988874618983185,
        "Eccentricity": 0.0,
        "Inclination(deg)": 53.0,
        "Latitude(deg)": 29.89395441411276,
        "Longitude(deg)": 42.69129981394705,
        "Mean Anomaly(deg)": -218.50075824706124,
        "RAAN(deg)": 349.9776928866687,
        "Satellite Name": "Starlink Shell 1 1547",
        "Satellite Number": 1547,
        "Semi-Major Axis(m)": 6931778.249405717,
        "Time(s)": 430
    },
    {
        "Altitude(m)": 554962.0287974738,
        "Argument of Periapsis(deg)": 0.015337453098494424,
        "Eccentricity": 0.0,
        "Inclination(deg)": 53.0,
        "Latitude(deg)": 29.439182078266363,
        "Longitude(deg)": 43.14818340722191,
        "Mean Anomaly(deg)": -217.87392704350455,
        "RAAN(deg)": 349.97717411659124,
        "Satellite Name": "Starlink Shell 1 1547",
        "Satellite Number": 1547,
        "Semi-Major Axis(m)": 6931778.249405717,
        "Time(s)": 440
    },
    {
        "Altitude(m)": 554890.8034349391,
        "Argument of Periapsis(deg)": 0.01568603157800566,
        "Eccentricity": 0.0,
        "Inclination(deg)": 53.0,
        "Latitude(deg)": 28.982531809093945,
        "Longitude(deg)": 43.60064112320663,
        "Mean Anomaly(deg)": -217.24709583994775,
        "RAAN(deg)": 349.9766553465137,
        "Satellite Name": "Starlink Shell 1 1547",
        "Satellite Number": 1547,
        "Semi-Major Axis(m)": 6931778.249405717,
        "Time(s)": 450
    },
    {
        "Altitude(m)": 554820.7583845387,
        "Argument of Periapsis(deg)": 0.0160346100575169,
        "Eccentricity": 0.0,
        "Inclination(deg)": 53.0,
        "Latitude(deg)": 28.5240537729997,
        "Longitude(deg)": 44.04877577005189,
        "Mean Anomaly(deg)": -216.62026463639108,
        "RAAN(deg)": 349.97613657643626,
        "Satellite Name": "Starlink Shell 1 1547",
        "Satellite Number": 1547,
        "Semi-Major Axis(m)": 6931778.249405717,
        "Time(s)": 460
    },
    {
        "Altitude(m)": 554751.9463048693,
        "Argument of Periapsis(deg)": 0.016383188537028134,
        "Eccentricity": 0.0,
        "Inclination(deg)": 53.0,
        "Latitude(deg)": 28.063797038230383,
        "Longitude(deg)": 44.49268934311941,
        "Mean Anomaly(deg)": -215.99343343283434,
        "RAAN(deg)": 349.9756178063588,
        "Satellite Name": "Starlink Shell 1 1547",
        "Satellite Number": 1547,
        "Semi-Major Axis(m)": 6931778.249405717,
        "Time(s)": 470
    },
    {
        "Altitude(m)": 554684.4194233544,
        "Argument of Periapsis(deg)": 0.01673176701653937,
        "Eccentricity": 0.0,
        "Inclination(deg)": 53.0,
        "Latitude(deg)": 27.60180960554661,
        "Longitude(deg)": 44.93248201170692,
        "Mean Anomaly(deg)": -215.36660222927767,
        "RAAN(deg)": 349.97509903628134,
        "Satellite Name": "Starlink Shell 1 1547",
        "Satellite Number": 1547,
        "Semi-Major Axis(m)": 6931778.249405717,
        "Time(s)": 480
    },
    {
        "Altitude(m)": 554618.2295084957,
        "Argument of Periapsis(deg)": 0.017080345496050607,
        "Eccentricity": 0.0,
        "Inclination(deg)": 53.0,
        "Latitude(deg)": 27.13813843845162,
        "Longitude(deg)": 45.3682526218239,
        "Mean Anomaly(deg)": -214.73977102572093,
        "RAAN(deg)": 349.9745802662038,
        "Satellite Name": "Starlink Shell 1 1547",
        "Satellite Number": 1547,
        "Semi-Major Axis(m)": 6931778.249405717,
        "Time(s)": 490
    },
    {
        "Altitude(m)": 554553.4278423137,
        "Argument of Periapsis(deg)": 0.017428923975561842,
        "Eccentricity": 0.0,
        "Inclination(deg)": 53.0,
        "Latitude(deg)": 26.67282949295464,
        "Longitude(deg)": 45.800099201887186,
        "Mean Anomaly(deg)": -214.11293982216426,
        "RAAN(deg)": 349.97406149612635,
        "Satellite Name": "Starlink Shell 1 1547",
        "Satellite Number": 1547,
        "Semi-Major Axis(m)": 6931778.249405717,
        "Time(s)": 500
    },
    {
        "Altitude(m)": 554490.0651929709,
        "Argument of Periapsis(deg)": 0.01777750245507308,
        "Eccentricity": 0.0,
        "Inclination(deg)": 53.0,
        "Latitude(deg)": 26.205927746848033,
        "Longitude(deg)": 46.22811795822744,
        "Mean Anomaly(deg)": -213.4861086186075,
        "RAAN(deg)": 349.97354272604895,
        "Satellite Name": "Starlink Shell 1 1547",
        "Satellite Number": 1547,
        "Semi-Major Axis(m)": 6931778.249405717,
        "Time(s)": 510
    },
    {
        "Altitude(m)": 554428.1917876353,
        "Argument of Periapsis(deg)": 0.018126080934584315,
        "Eccentricity": 0.0,
        "Inclination(deg)": 53.0,
        "Latitude(deg)": 25.737477228489603,
        "Longitude(deg)": 46.65240378592931,
        "Mean Anomaly(deg)": -212.8592774150508,
        "RAAN(deg)": 349.9730239559714,
        "Satellite Name": "Starlink Shell 1 1547",
        "Satellite Number": 1547,
        "Semi-Major Axis(m)": 6931778.249405717,
        "Time(s)": 520
    },
    {
        "Altitude(m)": 554367.8572855378,
        "Argument of Periapsis(deg)": 0.018474659414095554,
        "Eccentricity": 0.0,
        "Inclination(deg)": 53.0,
        "Latitude(deg)": 25.26752104507436,
        "Longitude(deg)": 47.073050781923534,
        "Mean Anomaly(deg)": -212.23244621149408,
        "RAAN(deg)": 349.97250518589397,
        "Satellite Name": "Starlink Shell 1 1547",
        "Satellite Number": 1547,
        "Semi-Major Axis(m)": 6931778.249405717,
        "Time(s)": 530
    },
    {
        "Altitude(m)": 554309.1107513009,
        "Argument of Periapsis(deg)": 0.018823237893606792,
        "Eccentricity": 0.0,
        "Inclination(deg)": 53.0,
        "Latitude(deg)": 24.796101410386886,
        "Longitude(deg)": 47.490151247261075,
        "Mean Anomaly(deg)": -211.60561500793744,
        "RAAN(deg)": 349.97198641581645,
        "Satellite Name": "Starlink Shell 1 1547",
        "Satellite Number": 1547,
        "Semi-Major Axis(m)": 6931778.249405717,
        "Time(s)": 540
    },
    {
        "Altitude(m)": 554252.0006285135,
        "Argument of Periapsis(deg)": 0.019171816373118027,
        "Eccentricity": 0.0,
        "Inclination(deg)": 53.0,
        "Latitude(deg)": 24.32325967203001,
        "Longitude(deg)": 47.903796204136576,
        "Mean Anomaly(deg)": -210.97878380438067,
        "RAAN(deg)": 349.971467645739,
        "Satellite Name": "Starlink Shell 1 1547",
        "Satellite Number": 1547,
        "Semi-Major Axis(m)": 6931778.249405717,
        "Time(s)": 550
    },
    {
        "Altitude(m)": 554196.5747135599,
        "Argument of Periapsis(deg)": 0.019520394852629266,
        "Eccentricity": 0.0,
        "Inclination(deg)": 53.0,
        "Latitude(deg)": 23.849036338125835,
        "Longitude(deg)": 48.31407591461491,
        "Mean Anomaly(deg)": -210.35195260082395,
        "RAAN(deg)": 349.9709488756616,
        "Satellite Name": "Starlink Shell 1 1547",
        "Satellite Number": 1547,
        "Semi-Major Axis(m)": 6931778.249405717,
        "Time(s)": 560
    }
]